#dP2024  8 28  0  0  0.00000000      97 __u+U IGS20 FIT  IAC
## 2329 259200.00000000   900.00000000 60550 0.0000000000000
+  118   C06C07C08C09C10C11C12C13C14C16C19C20C21C22C23C24C25
+        C26C27C28C29C30C32C33C34C35C36C37C38C39C40C41C42C43
+        C44C45E02E03E04E05E06E07E08E09E10E11E12E13E14E15E19
+        E21E24E25E26E27E29E30E31E33E34E36G02G03G04G05G06G07
+        G08G09G10G11G12G13G14G15G16G17G18G19G20G21G22G23G24
+        G25G26G27G28G29G30G31G32J02J03J04R01R02R03R04R05R07
+        R08R09R11R12R14R15R16R17R18R19R20R21R22R24R25R26  0
++         7  7  8  7  7  6  6  7  7  7  5  5  5  5  6  5  6
++        10  6  6  6  6  6  6  5  6  6  5  6  6  6  6  5  6
++         6  5  4  4  4  4  5  4  4  4  4  4  4  4  4  4  4
++         4  4  4  4  4  4  4  4  4  4  4  3  3  3  3  3  3
++         3  3  3  3  3  3  3  4  3  3  3  3  3  3  3  4  4
++         3  3  3  3  3  6  3  3 11 11 11  9  7  7  7  7  6
++         6  6  6  7  7  7  7  6  6  7  8  6  6  6  7  7  0
%c M  cc GPS ccc cccc cccc cccc cccc ccccc ccccc ccccc ccccc
%c cc cc ccc ccc cccc cccc cccc cccc ccccc ccccc ccccc ccccc
%f  1.2500000  1.025000000  0.00000000000  0.000000000000000
%f  0.0000000  0.000000000  0.00000000000  0.000000000000000
%i    0    0    0    0      0      0      0      0         0
%i    0    0    0    0      0      0      0      0         0
/* INFORMATION & ANALYSIS CENTER (IAC)            FINAL DATA
/* S/V CLOCKS ARE ALIGNED TO GNSS TIME                      
/* G:C1WC2W R:C1PC2P E:C1XC5X C:C2IC6I J:C1CC2S             
/* PCV:IGS20_2317 OL/AL:FES2004  NONE     YN ORB:CoN CLK:CoN
*  2024 08 28 22 15  0.00000000
PC06  -2577.426100  27091.678916 -32053.083699    726.082254
PC07 -17542.207511  32112.642093  20861.614513   -420.849258
PC08  -7617.234353  40956.656692   7254.872515   -477.677652
PC09   6556.438680  30840.038770 -27169.580227   -248.672444
PC10  -9786.210193  32170.714700  25477.514333   -149.652430
PC11  26534.648506   1562.710390  -8461.906419    735.435268
PC12  22618.233773  12956.812248  10023.814305   -265.855199
PC13  -2328.495065  42258.920177   -177.457509    436.263488
PC14  21995.605609  -8540.724188 -14945.616175   -133.723429
PC16  -5309.150309  24977.578004 -33162.644386   -762.928726
PC19 -21698.197249  16131.864449   6863.865085   -930.087032
PC20 -19516.711779   1115.305043  19899.979729   -855.880199
PC21   5210.535294  16135.021466 -22157.302228   -937.448466
PC22 -11558.291636  22872.783901 -11029.617320    106.451656
PC23   2779.771829 -24360.897867  13329.353623   -823.276885
PC24  17361.854899  12085.141080  18204.900048    844.236849
PC25  14112.604632  -8812.616567  22392.944105    491.093519
PC26  10834.366987  25512.835564   3377.246538   -340.883255
PC27 -15295.678850 -16047.652448 -16967.382464    361.245249
PC28   2599.450701 -15869.210990 -22800.409210    279.353619
PC29 -22757.869448   6120.366777  14936.880462    328.020412
PC30 -26827.012467  -7294.147143  -2508.107958   -182.274946
PC32  -5197.136303 -16223.891575  22109.136764   -716.456678
PC33  21632.283874 -16219.933040  -6955.378434   -970.742453
PC34  27192.471256   6188.689348    820.869185    509.162694
PC35  -2653.409401  15917.996716  22753.010604    275.397307
PC36 -14102.868412   8991.741489 -22314.207272    171.060139
PC37 -10269.708837 -25707.871537  -3388.543539   -903.328627
PC38 -12100.490594  37240.753600  15889.573672    176.065900
PC39 -10879.947978  21522.451657 -34509.569674     -9.687503
PC40 -24863.480472  26387.522991  21279.475791    -88.143734
PC41  12184.384108 -22963.620734  10215.393765   -917.808995
PC42  18692.306360    554.503163 -20691.906416   -469.101121
PC43  23385.281628  -5555.898404 -14177.134949     83.892978
PC44  15740.887018  15560.442939  16969.070668    576.986834
PC45  -3115.274423  24113.556108 -13716.355200   -123.434045
PE02  18448.552986  -7050.509440  22045.965666    154.960750
PE03  29147.367671  -4871.580589  -1846.172721   -136.710364
PE04 -19226.196257  15615.952621 -16201.669585    -19.493715
PE05  21646.479691   8463.554754 -18334.935845   4779.257818
PE06  -9338.906363  17707.533870 -21821.916450    -20.077194
PE07  -1043.844324 -17012.414686  24200.426635   -139.068176
PE08  20008.892106 -15228.688238  15623.757125   -326.621788
PE09    947.723362  16885.704654 -24296.215027   -569.514618
PE10    671.602755  20890.314197  20959.167280   -652.144630
PE11  10006.930740  24343.268682  13531.059600   1878.569534
PE12  -7838.898080  14856.974349  24365.969580  -1186.452745
PE13  -9569.692166 -24229.797845 -14049.533732    -24.257417
PE14  -6364.691216 -17679.842906 -21879.112851    192.662314
PE15   8324.169248 -14309.228390 -24533.495270   -123.742549
PE19 -29166.572624   3420.937362   3705.390503    532.478427
PE21 -12170.676945 -14035.574416 -23039.810897   -613.693336
PE24  -1660.414231  27691.057940  10340.745061   -956.471027
PE25  11935.940099  14463.430931  22912.384473      8.485588
PE26 -21733.996230 -19471.702280   4935.562560    555.043539
PE27   1472.264236 -27628.638340 -10505.443545   -438.226633
PE29 -21986.711819  -8370.524922  17960.496178    -26.160637
PE30  14153.842459 -24716.321921   8040.116466   -659.531396
PE31 -14059.660702  24772.970019  -8038.070354    -34.043241
PE33 -21209.161730  -4283.317857  20193.149039     14.944938
PE34  21066.044997   3819.221702 -20452.989296   -131.134986
PE36  21531.837669  19825.112671  -4424.304254   -275.592323
PG02 -22541.906602 -13018.276331   6549.223952   -369.547987
PG03 -13845.677841  -4685.907379  22011.457120    517.638304
PG04 -24268.516152  -2000.965102  10789.775601    433.139286
PG05   6893.925061  20106.175757 -16065.902764   -184.754809
PG06  -2494.519626  16734.523963  20509.157038     68.167591
PG07 -18413.127384    589.279400 -18767.337751    -45.023138
PG08 -16638.077567  -8973.986822 -18935.803254    332.857076
PG09 -25565.605983   7295.850748    431.625427    333.297588
PG10  10385.998132 -23444.068984  -6004.854750   -107.841659
PG11  10279.319538  22109.632210  10645.051578   -727.831715
PG12  12645.504107   8968.855083  21291.401242   -533.900569
PG13   7822.039717  13839.011837 -21539.341084    673.449866
PG14 -13151.118061  20904.880364  -9422.773202    483.017776
PG15  17645.942508   7432.609632 -18993.567218    197.896396
PG16  -1985.015265 -22662.002788 -13663.070148   -195.988268
PG17 -18068.690685  13793.719619  14297.335794    642.562972
PG18  17588.330073  -1261.288937 -19910.110041   -649.700427
PG19  -9826.275168  15042.077790  19259.051629    530.783213
PG20   2117.568133  25871.017237  -5922.489716    371.202341
PG21 -21361.823934 -16731.189185   1004.918012    102.764716
PG22  -9692.880559  24869.944907   -861.114208    -56.195190
PG23  14890.630625 -13971.574325 -16836.970603    307.785495
PG24  21988.910790  14840.021502   3242.548049   -486.729545
PG25  16044.865204  -4353.380906  20319.984418    499.488816
PG26   3933.272553 -26047.917069   -925.586522     90.944892
PG27  -5243.009402 -14465.086897 -21952.269147    -33.513716
PG28   4405.375510 -15805.095818  20874.947883   -390.425562
PG29  26273.389796  -2645.292341   3400.730124   -581.312429
PG30 -10915.650420  11259.611442 -21281.084221   -331.592286
PG31  -6307.533488 -21141.488029  14279.162296   -225.362455
PG32  15946.646415 -15236.183696  14866.164328   -602.125007
PJ02 -26500.826035  31213.679553  -5393.159680     -0.886101
PJ03 -26927.875412  21826.501163  29111.996919     -2.346323
PJ04 -32662.779655  26596.022643   1429.461389     22.434725
PR01 -21070.417023  10438.181620   9868.501681     95.974667
PR02 -17873.918789  16812.535326  -7056.493935    -24.363598
PR03  -3972.235946  14741.444986 -20413.422325    106.510170
PR04  11423.763373   4507.426207 -22331.138057    252.090245
PR05  20901.143649  -7906.712927 -12270.688553    136.813008
PR07   3286.013675 -14436.791175  20790.221948     89.756129
PR08 -11772.082328  -4316.755402  22273.624986     -6.396907
PR09   5344.383589 -19098.356674  16117.009785    206.011887
PR11  -9246.289096 -18757.999860 -14605.082498     13.399246
PR12 -10980.047489   1038.344346 -22970.541481     44.185852
PR14   2966.119838  25321.283641   -306.997798     26.875801
PR15   9697.855667  17428.275049  15920.614899     76.403381
PR16  10866.517016   -875.992071  23075.378425     28.662423
PR17   8639.702545  13763.391006  19689.628874    117.241556
PR18  20899.380157  13003.108049   6637.095830    159.318972
PR19  22974.794596   7398.439373  -8275.242786   -289.312696
PR20  10461.971887  -5960.890216 -22473.753662   -118.322333
PR21  -7857.345852 -13629.623824 -20064.844149   -129.834370
PR22 -21133.012225 -13241.657993  -5342.884208     59.644508
PR24  -9870.037725   7172.948161  22413.700419    -69.740169
PR25  -8270.666030 -14354.895035 -19379.254959   -101.033805
PR26 -10527.474290  -5370.751827  22617.402376     13.437715
EOF
